{
	"sittercount": 305,
	"sitters":[
			{"sitterid":"1","sitter":"System Admin","active":"1","street1":"202 E. Custis Ave","city":"ALEXANDRIA","state":"VA","zip":"22301","lon":"-77.0581","lat":"38.8256"},
			{"sitterid":"2","sitter":"Ben Ball","active":"0","street1":"3123 Elmwood Drive","city":"ALEXANDRIA","state":"VA","zip":"22314","lon":"-77.0861","lat":"38.7985"},
			{"sitterid":"3","sitter":"Bill","active":"0","street1":"4204 Breezewood Lane","city":"ANNANDALE","state":"VA","zip":"22003","lon":"-77.169","lat":"38.8327"},
			{"sitterid":"4","sitter":"Ashley","active":"0","street1":"2314 Victory Dr","city":"ALEXANDRIA","state":"VA","zip":"22303","lon":"-77.0715","lat":"38.7959"},
			{"sitterid":"5","sitter":"Patricia","active":"0","street1":"2961 S. Columbus St.","city":"ARLINGTON","state":"VA","zip":"22206","lon":"-77.1009","lat":"38.8381"},
			{"sitterid":"6","sitter":"Dena","active":"1","street1":"1710 Commonwealth Ave","city":"ALEXANDRIA","state":"VA","zip":"22301","lon":"-78.2011","lat":"38.9351"},
			{"sitterid":"7","sitter":"Dean","active":"1","street1":"4303 S. Valiant Ct","city":"Annandale","state":"VA","zip":"22003","lon":"-77.2312","lat":"38.8302"},
			{"sitterid":"8","sitter":"Holly","active":"0","street1":"6400 Wayside Place","city":"ALEXANDRIA","state":"VA","zip":"22310","lon":"-77.1156","lat":"38.7793"},
			{"sitterid":"9","sitter":"Robin","active":"0","street1":"6400 Wayside Place","city":"ALEXANDRIA","state":"VA","zip":"22310","lon":"-77.1156","lat":"38.7793"},
			{"sitterid":"10","sitter":"Tammy Freeman","active":"0","street1":"301 N Beauregard St.","city":"ALEXANDRIA","state":"VA","zip":"22312","lon":"-77.1381","lat":"38.8198"},
			{"sitterid":"11","sitter":"Jackie Goin","active":"0","street1":"Belle View Boulevards","city":"ALEXANDRIA","state":"VA","zip":"22307","lon":"-77.0603","lat":"38.775"},
			{"sitterid":"12","sitter":"Brian Griffith","active":"0","street1":"4713 West Braddock #10","city":"ALEXANDRIA","state":"VA","zip":"22311","lon":"-77.1089","lat":"38.8362"},
			{"sitterid":"13","sitter":"Melissa Hall","active":"0","street1":"4713 West Braddock Road #10","city":"ALEXANDRIA","state":"VA","zip":"22311","lon":"-77.1089","lat":"38.8362"},
			{"sitterid":"14","sitter":"Erica","active":"0","street1":"4575 Airlie Way","city":"ANNANDALE","state":"VA","zip":"22003","lon":"-77.175","lat":"38.8265"},
			{"sitterid":"15","sitter":"David Logan","active":"0","street1":"18 F Auburn Court","city":"ALEXANDRIA","state":"VA","zip":"22305","lon":"-77.0574","lat":"38.8346"},
			{"sitterid":"16","sitter":"Aubrey Ludwig","active":"0","street1":"2703 Dewitt Ave.","city":"ALEXANDRIA","state":"VA","zip":"22301","lon":"-77.0566","lat":"38.8299"},
			{"sitterid":"17","sitter":"John","active":"0","street1":"1548 New Jersey Ave NW","city":"Washington","state":"DC","zip":"20001","lon":"-77.0172","lat":"38.911"},
			{"sitterid":"18","sitter":"Meredith Muckerman","active":"0","street1":"1008 DeWolfe Dr.","city":"ALEXANDRIA","state":"VA","zip":"22308","lon":"-77.0491","lat":"38.7232"},
			{"sitterid":"19","sitter":"Kelly","active":"0","street1":"3700 Valley Drive","city":"ALEXANDRIA","state":"VA","zip":"22302","lon":"-77.0792","lat":"38.8406"},
			{"sitterid":"20","sitter":"Josh","active":"0","street1":"1810 N. Taylor St.","city":"ARLINGTON","state":"VA","zip":"22207","lon":"-77.1135","lat":"38.8932"},
			{"sitterid":"21","sitter":"Amy O'Halloran","active":"0","street1":"300 Yoakum Parkway #1426","city":"ALEXANDRIA","state":"VA","zip":"22304","lon":"-77.1383","lat":"38.8103"},
			{"sitterid":"22","sitter":"Beth","active":"0","street1":"1119 Montello Ave NE","city":"WASHINGTON","state":"DC","zip":"20002","lon":"-76.9895","lat":"38.9032"},
			{"sitterid":"23","sitter":"Andy","active":"1","street1":"12249 Fairfield House Drive","city":"Fairfax","state":"VA","zip":"22033","lon":"-77.3715","lat":"38.8635"},
			{"sitterid":"24","sitter":"Jessica","active":"0","street1":"3815 Jason Ave","city":"ALEXANDRIA","state":"VA","zip":"22302","lon":"-77.0945","lat":"38.8304"},
			{"sitterid":"25","sitter":"Sue","active":"0","street1":"232 Evans Lane","city":"Alexandria","state":"VA","zip":"22305","lon":"-77.0531","lat":"38.8355"},
			{"sitterid":"26","sitter":"Sarah","active":"0","street1":"6419 Haystack Rd. in Alexandria","city":"ALEXANDRIA","state":"VA","zip":"22315","lon":"-77.1182","lat":"38.7759"},
			{"sitterid":"27","sitter":"Cam","active":"1","street1":"225 Century Place","city":"ALEXANDRIA","state":"VA","zip":"22304","lon":"-77.1275","lat":"38.8163"},
			{"sitterid":"28","sitter":"Kim","active":"0","street1":"503 E. Windsor Ave","city":"ALEXANDRIA","state":"VA","zip":"22301","lon":"-77.052","lat":"38.825"},
			{"sitterid":"29","sitter":"Cori","active":"0","street1":"232 Evans Lane","city":"Alexandria","state":"VA","zip":"22305","lon":"-77.0531","lat":"38.8355"},
			{"sitterid":"30","sitter":"Matthew  Wagner","active":"0","street1":"1904 Key Bvld","city":"ARLINGTON","state":"VA","zip":"22201","lon":"-77.083","lat":"38.8945"},
			{"sitterid":"31","sitter":"Becky","active":"0","street1":"116 Hume Ave","city":"ALEXANDRIA","state":"VA","zip":"22301","lon":"-77.0579","lat":"38.8312"},
			{"sitterid":"32","sitter":"Mechelle","active":"0","street1":"814 S. Patrick St. ","city":"ALEXANDRIA","state":"VA","zip":"22314","lon":"-77.0519","lat":"38.7969"},
			{"sitterid":"33","sitter":"Larissa Gibson","active":"0","street1":"2934 Sycamore St","city":"Alexandria","state":"VA","zip":"22305","lon":"-77.0632","lat":"38.8325"},
			{"sitterid":"34","sitter":"Natalie","active":"0","street1":"309 Yoakum Parkway #1802","city":"ALEXANDRIA","state":"Va","zip":"22304","lon":"-77.1419","lat":"38.8091"},
			{"sitterid":"35","sitter":"Vicki","active":"0","street1":"269 S. Pickett St.  ","city":"ALEXANDRIA","state":"VA","zip":"22304","lon":"-77.1257","lat":"38.8094"},
			{"sitterid":"36","sitter":"Geoff ","active":"0","street1":"6008 Stoddard ct.","city":"ALEXANDRIA","state":"VA","zip":"22315","lon":"-77.1403","lat":"38.7622"},
			{"sitterid":"37","sitter":"Jess ( Mc) ","active":"1","street1":"1726 W Abingdon Dr.","city":"ALEXANDRIA","state":"VA","zip":"22314","lon":"-77.0447","lat":"38.8237"},
			{"sitterid":"38","sitter":"Courtney","active":"0","street1":"3433 Pipit Drive","city":"ALEXANDRIA","state":"VA","zip":"22306","lon":"-77.0907","lat":"38.7472"},
			{"sitterid":"39","sitter":"Becky B ","active":"0","street1":"7932 Bayberry Drive ","city":"ALEXANDRIA","state":"VA","zip":"22306","lon":"-77.0721","lat":"38.7408"},
			{"sitterid":"40","sitter":"Michelle","active":"0","street1":"5300 Larochelle Court","city":"ALEXANDRIA","state":"VA","zip":"22315","lon":"-77.1279","lat":"38.7682"},
			{"sitterid":"41","sitter":"Jackie d","active":"0","street1":"3775 Gunston Rd","city":"ALEXANDRIA","state":"VA","zip":"22302","lon":"-77.0827","lat":"38.8403"},
			{"sitterid":"42","sitter":"Brian","active":"0","street1":"5831 Edgehill Dr","city":"ALEXANDRIA","state":"VA","zip":"22306","lon":"-77.0807","lat":"38.7922"},
			{"sitterid":"43","sitter":"Tom ","active":"0","street1":null,"city":null,"state":null,"zip":null,"0":false},
			{"sitterid":"44","sitter":"Ron ","active":"0","street1":"3488 Gunston Road","city":"ALEXANDRIA","state":"VA","zip":"22302","lon":"-77.0781","lat":"38.8375"},
			{"sitterid":"45","sitter":"Sara Unsal ","active":"0","street1":"1023 N Royal St #111","city":"ALEXANDRIA","state":"VA","zip":"22314","lon":"-77.041","lat":"38.8153"},
			{"sitterid":"46","sitter":"Natasha ","active":"1","street1":"7104 Rebecca Drive ","city":"ALEXANDRIA","state":"VA","zip":"22307","lon":"-77.0693","lat":"38.7626"},
			{"sitterid":"47","sitter":"Nicole","active":"0","street1":"4 West Glebe Road","city":"ALEXANDRIA","state":"VA","zip":"22305","lon":"-77.0582","lat":"38.8354"},
			{"sitterid":"48","sitter":"Christine","active":"0","street1":"4400 Starr Jordan Drive","city":"ARLINGTON","state":"VA","zip":"22203","lon":"-77.2557","lat":"38.8289"},
			{"sitterid":"49","sitter":"Abby ","active":"0","street1":"8 Kennedy St","city":"ALEXANDRIA","state":"VA","zip":"22305","lon":"-77.0602","lat":"38.8326"},
			{"sitterid":"50","sitter":"Jack","active":"0","street1":"5001 Seminary Rd #1529","city":"ALEXANDRIA","state":"VA","zip":"22311","lon":"-77.114","lat":"38.8329"},
			{"sitterid":"51","sitter":"James ","active":"0","street1":"7932 Bayberry Drive","city":"ALEXANDRIA","state":"VA","zip":"22306","lon":"-77.072","lat":"38.7407"},
			{"sitterid":"52","sitter":"Niki","active":"0","street1":"13123 Curved Iron Road","city":"Herndon","state":"VA 20171","zip":null,"lon":"-77.4014","lat":"38.9377"},
			{"sitterid":"53","sitter":"Richard","active":"0","street1":"7129 Tolliver Street","city":"ALEXANDRIA","state":"VA","zip":"22306","lon":"-77.0984","lat":"38.7635"},
			{"sitterid":"54","sitter":"Emily","active":"0","street1":"208 E. Howell Ave","city":"ALEXANDRIA","state":"VA","zip":"22301","lon":"-77.0575","lat":"38.8241"},
			{"sitterid":"55","sitter":"Jackie","active":"0","street1":"3315 N Glebe Road","city":"ARLINGTON","state":"VA","zip":"22207","lon":"-77.1324","lat":"38.9106"},
			{"sitterid":"56","sitter":"John F","active":"0","street1":"6419 Haystack Road","city":"ALEXANDRIA","state":"VA","zip":"22310","lon":"-77.118","lat":"38.7761"},
			{"sitterid":"57","sitter":"Lee","active":"0","street1":"228 F Ave","city":"Coronado","state":"92118","zip":null,"lon":"-117.177","lat":"32.6984"},
			{"sitterid":"58","sitter":"Mellisa","active":"0","street1":"3109 Battersea Lane","city":"ALEXANDRIA","state":"VA","zip":"22309","lon":"-77.0853","lat":"38.726"},
			{"sitterid":"59","sitter":"Ricky","active":"0","street1":"8324 Fleetwood Ct.","city":"ALEXANDRIA","state":"VA","zip":"22308","lon":"-77.0621","lat":"38.7321"},
			{"sitterid":"60","sitter":"Jake","active":"0","street1":"1810 North Taylor Street","city":"ARLINGTON","state":"VA","zip":"22207","lon":"-77.1135","lat":"38.8932"},
			{"sitterid":"61","sitter":"Will","active":"0","street1":"4608 N. 37th Street","city":"ARLINGTON","state":"VA","zip":"22207","lon":"-77.133","lat":"38.9166"},
			{"sitterid":"62","sitter":"Kim C","active":"0","street1":"706 Arlington Mill Drive S.","city":"ARLINGTON","state":"VA","zip":"22204","lon":"-77.1155","lat":"38.8605"},
			{"sitterid":"63","sitter":"Brittany","active":"0","street1":"1205 S. Washington St. ","city":"ALEXANDRIA","state":"VA","zip":"22314","lon":"-77.0503","lat":"38.7927"},
			{"sitterid":"64","sitter":"Mark ","active":"0","street1":"7433 Hastings Street","city":"SPRINGFIELD","state":"VA","zip":"22150","lon":"-77.2013","lat":"38.7794"},
			{"sitterid":"65","sitter":"Wendy ","active":"0","street1":"5731 Leverett Court","city":"ALEXANDRIA","state":"VA","zip":"22311","lon":"-77.1282","lat":"38.8334"},
			{"sitterid":"66","sitter":"Luis","active":"0","street1":"7834 Flamingo Drive","city":"Alexandria","state":"VA","zip":null,"lon":"-77.0922","lat":"38.7439"},
			{"sitterid":"67","sitter":"Shannon W","active":"0","street1":"6521 Brick Hearth Court","city":"ALEXANDRIA","state":"VA","zip":"22306","lon":"-77.0874","lat":"38.7764"},
			{"sitterid":"68","sitter":"Meghan","active":"0","street1":"508 A East Windsor Ave","city":"ALEXANDRIA","state":"VA","zip":"22301","lon":"-77.0516","lat":"38.8255"},
			{"sitterid":"69","sitter":"Lauren ","active":"0","street1":"13 Sunset Drive","city":"ALEXANDRIA","state":"VA","zip":"22301","lon":"-77.0611","lat":"38.8076"},
			{"sitterid":"70","sitter":"Emily S","active":"0","street1":"4719 W Braddock Rd","city":"ALEXANDRIA","state":"VA","zip":"22311","lon":"-77.109","lat":"38.8362"},
			{"sitterid":"71","sitter":"Diann","active":"0","street1":"3335 Croffut Place SE Apt B ","city":"Washington","state":"DC","zip":"20019","lon":"-76.9583","lat":"38.8866"},
			{"sitterid":"72","sitter":"Bruce","active":"0","street1":"826 N. Iverson St","city":"ALEXANDRIA","state":"VA","zip":"22304","lon":"-77.1065","lat":"38.8195"},
			{"sitterid":"73","sitter":"Shannon S","active":"0","street1":"708 Duke Street","city":"ALEXANDRIA","state":"VA","zip":"22314","lon":"-77.0483","lat":"38.8025"},
			{"sitterid":"74","sitter":"Say","active":"0","street1":"1205 H St.","city":"Alexandria","state":"22307","zip":null,"lon":"-77.0531","lat":"38.7775"},
			{"sitterid":"75","sitter":"James C","active":"0","street1":"7756 Desiree Street","city":"ALEXANDRIA","state":"VA","zip":"22315","lon":"-77.1714","lat":"38.747"},
			{"sitterid":"76","sitter":"Brian ","active":"0","street1":"3315 Rocky Mount Road","city":"FAIRFAX","state":"VA","zip":"22031","lon":"-77.2638","lat":"38.8573"},
			{"sitterid":"77","sitter":"Cassie","active":"0","street1":"904 1\/2 Pendleton St","city":"Alexandria","state":"VA","zip":"22314","lon":"-77.0484","lat":"38.8109"},
			{"sitterid":"78","sitter":"Greg","active":"0","street1":"5310 8th Road South","city":"ARLINGTON","state":"VA","zip":"22204","lon":"-77.1196","lat":"38.8562"},
			{"sitterid":"79","sitter":"Susan","active":"0","street1":"3287 Blue Heron Drive","city":"FALLS CHURCH","state":"VA","zip":"22042","lon":"-77.1834","lat":"38.8585"},
			{"sitterid":"80","sitter":"Katie","active":"0","street1":"4517 sanganmore road","city":"Bethesha","state":"MD","zip":null,"lon":"-77.1184","lat":"38.9485"},
			{"sitterid":"81","sitter":"Charity","active":"0","street1":"6044 Joust Lane","city":"ALEXANDRIA","state":"VA","zip":"22315","lon":"-77.1429","lat":"38.7636"},
			{"sitterid":"82","sitter":"Alba","active":"1","street1":"4390 King Street","city":"ALEXANDRIA","state":"VA","zip":"22302","lon":"-77.1049","lat":"38.838"},
			{"sitterid":"83","sitter":"Margaret","active":"0","street1":"502 Canterbury Lane","city":"ALEXANDRIA","state":"VA","zip":"22314","lon":"-77.0863","lat":"38.8136"},
			{"sitterid":"84","sitter":"Stewart","active":"0","street1":"4202 Javins Drive","city":"ALEXANDRIA","state":"VA","zip":"22310","lon":"-77.1054","lat":"38.789"},
			{"sitterid":"85","sitter":"Heather","active":"0","street1":"815 Duke Street","city":"ALEXANDRIA","state":"VA","zip":"22314","lon":"-77.0493","lat":"38.8032"},
			{"sitterid":"86","sitter":"Lain","active":"0","street1":"5290 Duke St.","city":"ALEXANDRIA","state":"VA","zip":"22304","lon":"-77.1247","lat":"38.8122"},
			{"sitterid":"87","sitter":"Laine ","active":"0","street1":"5290 Duke St.","city":"ALEXANDRIA","state":"VA","zip":"22304","lon":"-77.1247","lat":"38.8122"},
			{"sitterid":"88","sitter":"Cheryl","active":"0","street1":"6009 Keble Drive","city":"ALEXANDRIA","state":"VA","zip":"22315","lon":"-77.1443","lat":"38.7723"},
			{"sitterid":"89","sitter":"Joey","active":"0","street1":"1305 North Pierce St","city":"ARLINGTON","state":"VA","zip":"22209","lon":"-77.0766","lat":"38.8899"},
			{"sitterid":"90","sitter":"Joe","active":"0","street1":"1150 4th St SW ","city":"Washington","state":"DC","zip":"20024","lon":"-77.0176","lat":"38.8764"},
			{"sitterid":"91","sitter":"Bryan","active":"0","street1":null,"city":"Alexandria","state":"VA","zip":null,"lon":"-77.0469","lat":"38.8048"},
			{"sitterid":"92","sitter":"Chels","active":"0","street1":"8384 Forrester Blvd","city":"SPRINGFIELD","state":"VA","zip":"22152","lon":"-77.2344","lat":"38.7918"},
			{"sitterid":"93","sitter":"Chelsea","active":"0","street1":"8384 Forrester Blvd","city":"SPRINGFIELD","state":"VA","zip":"22152","lon":"-77.2344","lat":"38.7918"},
			{"sitterid":"94","sitter":"Becca1","active":"0","street1":"501 Holland Lane Apt. 702","city":"ALEXANDRIA","state":"VA","zip":"22314","lon":"-77.0605","lat":"38.8018"},
			{"sitterid":"95","sitter":"B","active":"0","street1":"501 Holland Lane Apt. 702","city":"ALEXANDRIA","state":"VA","zip":"22314","lon":"-77.0605","lat":"38.8018"},
			{"sitterid":"96","sitter":"Becca","active":"0","street1":"501 Holland Lane Apt. 702","city":"ALEXANDRIA","state":"VA","zip":"22314","lon":"-77.0605","lat":"38.8018"},
			{"sitterid":"97","sitter":"Chris","active":"0","street1":"1304 Belle View Blvd. Unit #A1","city":"ALEXANDRIA","state":"VA","zip":"22307","lon":"-77.0563","lat":"38.7755"},
			{"sitterid":"98","sitter":"Laura","active":"1","street1":"5921 Williamsburg Road","city":"ALEXANDRIA","state":"VA","zip":"22303","lon":"-77.0773","lat":"38.7889"},
			{"sitterid":"101","sitter":"Tom 1","active":"0","street1":"1314 Martha Custis Dr","city":"ALEXANDRIA","state":"VA","zip":"22302","lon":"-77.0814","lat":"38.8418"},
			{"sitterid":"119","sitter":"Stephen ","active":"0","street1":"7147 Barry Road","city":"ALEXANDRIA","state":"VA","zip":"22315","lon":"-77.1685","lat":"38.7627"},
			{"sitterid":"120","sitter":"Casey","active":"0","street1":"550 14th Road S, Apt 434","city":"ARLINGTON","state":"VA","zip":"22202","lon":"-77.0561","lat":"38.8604"},
			{"sitterid":"121","sitter":"Karen","active":"1","street1":"3117 McGeorge Terr","city":"ALEXANDRIA","state":"VA","zip":"22309","lon":"-77.0846","lat":"38.7269"},
			{"sitterid":"122","sitter":"Daniel","active":"0","street1":"7801 Accotink Place","city":"ALEXANDRIA","state":"VA","zip":"22308","lon":"-77.0536","lat":"38.7462"},
			{"sitterid":"123","sitter":"EmilyC","active":"0","street1":"714 S. Fayette St","city":"ALEXANDRIA","state":"VA","zip":"22314","lon":"-77.0536","lat":"38.7982"},
			{"sitterid":"124","sitter":"Ashley Briggs","active":"0","street1":"9108 Joyce Stree","city":"FAIRFAX","state":"VA","zip":"22032","lon":"-77.2601","lat":"38.8356"},
			{"sitterid":"125","sitter":"Maggie","active":"0","street1":"6621 Wakefield Drive #710","city":"ALEXANDRIA","state":"VA","zip":"22307","lon":"-77.056","lat":"38.7722"},
			{"sitterid":"126","sitter":"Wesley","active":"0","street1":"3533 Malvern Court","city":"ALEXANDRIA","state":"VA","zip":"22304","lon":"-77.0915","lat":"38.8145"},
			{"sitterid":"127","sitter":"MelissaR","active":"0","street1":"404 Oronoco Street","city":"ALEXANDRIA","state":"VA","zip":"22314","lon":"-77.043","lat":"38.8091"},
			{"sitterid":"128","sitter":"Cal","active":"0","street1":"510 North View Terrace","city":"ALEXANDRIA","state":"VA","zip":"22301","lon":"-77.0672","lat":"38.8119"},
			{"sitterid":"129","sitter":"Kathy","active":"0","street1":"8109 Wellington Road","city":"ALEXANDRIA","state":"VA","zip":"22308","lon":"-77.053","lat":"38.739"},
			{"sitterid":"130","sitter":"Lyn","active":"0","street1":"7400 Auburn St","city":"ANNANDALE","state":"VA","zip":"22003","lon":"-77.2007","lat":"38.8182"},
			{"sitterid":"131","sitter":"Deke","active":"0","street1":"804 W Timber Branch Pkwy","city":"ALEXANDRIA","state":"VA","zip":"22302","lon":"-77.0768","lat":"38.8222"},
			{"sitterid":"132","sitter":"Amy","active":"0","street1":"6511 Berkshire Dr","city":"ALEXANDRIA","state":"VA","zip":"22310","lon":"-77.0954","lat":"38.7757"},
			{"sitterid":"133","sitter":"Teddy","active":"0","street1":"804 Timber Branch Parkway","city":"ALEXANDRIA","state":"VA","zip":"22302","lon":"-77.0768","lat":"38.8222"},
			{"sitterid":"134","sitter":"Lisa","active":"0","street1":"604 South Fairfax Street","city":"Alexandria","state":"VA","zip":"22314","lon":"-77.0436","lat":"38.7986"},
			{"sitterid":"135","sitter":"Loren ","active":"0","street1":"7303 Whitson Drive","city":"Springfield","state":"VA","zip":"22153","lon":"-77.2452","lat":"38.7579"},
			{"sitterid":"136","sitter":"Jeff","active":"0","street1":"1003 Croton Drive","city":"Alexandria","state":"VA","zip":"22308","lon":"-77.0486","lat":"38.7246"},
			{"sitterid":"137","sitter":"KathyB","active":"0","street1":null,"city":"Alexandria","state":"VA","zip":"22314","lon":"-77.0469","lat":"38.8048"},
			{"sitterid":"138","sitter":"Sara","active":"0","street1":"224 N Patrick St ","city":"Alexandria","state":"VA","zip":"22314","lon":"-77.0501","lat":"38.8074"},
			{"sitterid":"139","sitter":"Andrew","active":"0","street1":"4433 Majestic Lane","city":"Fairfax","state":"VA","zip":"22033","lon":"-77.4076","lat":"38.8728"},
			{"sitterid":"140","sitter":"Linda","active":"0","street1":"7255 Stover Drive","city":"Alexandria","state":"VA","zip":"22306","lon":"-77.1004","lat":"38.762"},
			{"sitterid":"141","sitter":"Jamie","active":"0","street1":"5612 Norton Road","city":"Alexandria","state":"VA","zip":"22303","lon":"-77.0936","lat":"38.7985"},
			{"sitterid":"142","sitter":"Leisha","active":"1","street1":"1600 Cool Spring Dr","city":"Alexandria","state":"VA","zip":"22308","lon":"-77.0596","lat":"38.7322"},
			{"sitterid":"143","sitter":"ChrisM","active":"0","street1":"3606 Paramount rd","city":"Fairfax","state":"VA","zip":"22033","lon":"-77.3844","lat":"38.8891"},
			{"sitterid":"144","sitter":"Emma","active":"0","street1":"404 Oronoco Street","city":"Alexandria","state":"VA","zip":"22314","lon":"-77.043","lat":"38.8091"},
			{"sitterid":"145","sitter":"Christen ","active":"0","street1":"6189 Vine Forest Court","city":"Falls Church","state":"VA","zip":"22044","lon":"-77.149","lat":"38.8609"},
			{"sitterid":"146","sitter":"Sarah B","active":"0","street1":"3823 Courtland Circle","city":"Alexandria","state":"VA","zip":"22305","lon":"-77.0663","lat":"38.8406"},
			{"sitterid":"147","sitter":"Ximena","active":"0","street1":"2351 Eisenhower Avenue #720","city":"Alexandria","state":"VA","zip":"22314","lon":"-77.0692","lat":"38.8014"},
			{"sitterid":"148","sitter":"David","active":"0","street1":"5300 Holmes Run Pkwy","city":"Alexandria","state":"VA","zip":"22304","lon":"-77.1223","lat":"38.8149"},
			{"sitterid":"149","sitter":"Janet","active":"0","street1":"2730 Monacan Street Apt. 303","city":"Alexandria","state":"VA","zip":"22314","lon":"-77.0805","lat":"38.8035"},
			{"sitterid":"150","sitter":"Kristin ","active":"0","street1":"1007 N George Mason Drive","city":"Arlington","state":"VA","zip":"22205","lon":"-77.1226","lat":"38.8828"},
			{"sitterid":"151","sitter":"DeanG","active":"1","street1":"2246 Richelieu Drive","city":"Vienna","state":"VA","zip":"22182","lon":"-77.2404","lat":"38.8986"},
			{"sitterid":"152","sitter":"Katie k","active":"0","street1":"5611 Franconia Rd","city":"Alexandria","state":"VA","zip":"22310","lon":"-77.1312","lat":"38.7836"},
			{"sitterid":"153","sitter":"Nate","active":"0","street1":"1211 Hillside Terrace","city":"Alexandria","state":"VA","zip":"22302","lon":"-77.0796","lat":"38.8272"},
			{"sitterid":"154","sitter":"Andrea","active":"0","street1":"2400 South Glebe Road","city":"Arlington","state":"VA","zip":"22206","lon":"-77.0818","lat":"38.8492"},
			{"sitterid":"155","sitter":"Liz  ","active":"0","street1":"1204 S. Alfred Street","city":"Alexandria","state":"VA","zip":"22314","lon":"-77.0504","lat":"38.7916"},
			{"sitterid":"156","sitter":"Bridget","active":"0","street1":"6304 Hillview Ave","city":"Alexandria","state":"VA","zip":"22310","lon":"-77.0991","lat":"38.7802"},
			{"sitterid":"158","sitter":"Jeannie","active":"0","street1":"5036 22nd Street South","city":"Arlington","state":"VA","zip":"22206","lon":"-77.1079","lat":"38.8437"},
			{"sitterid":"159","sitter":"Arielle","active":"0","street1":"7038 Bradley Circle ","city":"Annandale","state":"VA","zip":"22003","lon":"-77.1898","lat":"38.8442"},
			{"sitterid":"160","sitter":"Mina","active":"0","street1":"4130 ST RT 982","city":"LATROBE","state":"PA","zip":"15650","lon":"-79.3761","lat":"40.2664"},
			{"sitterid":"161","sitter":"Leah","active":"0","street1":"5733 Heritage Hill Court ","city":"Alexandria","state":"22310","zip":null,"lon":"-77.0841","lat":"38.7951"},
			{"sitterid":"162","sitter":"Rachael","active":"0","street1":"4506 Taney Ave","city":"Alexandria","state":"VA","zip":"22304","lon":"-77.109","lat":"38.8156"},
			{"sitterid":"163","sitter":"Gerald","active":"0","street1":"9010 Bowler Drive","city":"Fairfax","state":"VA","zip":"22031","lon":"-77.2573","lat":"38.8693"},
			{"sitterid":"164","sitter":"Jeanette","active":"0","street1":"518 N. Columbus St","city":"Alexandria","state":"VA","zip":"22314","lon":"-77.0473","lat":"38.8104"},
			{"sitterid":"165","sitter":"Steve","active":"0","street1":"6805 Montour Drive","city":"Falls Church","state":"VA","zip":"22043","lon":"-77.1793","lat":"38.9026"},
			{"sitterid":"166","sitter":"Jacqui","active":"0","street1":"801 S. Pitt Street","city":"Alexandria","state":"VA","zip":"22314","lon":"-77.0471","lat":"38.7962"},
			{"sitterid":"167","sitter":"Karen B.","active":"0","street1":"2500 N. Van Dorn St.","city":"Alexandria","state":"VA","zip":"22302","lon":"-77.0997","lat":"38.8327"},
			{"sitterid":"168","sitter":"Laura W","active":"0","street1":"7124 Judith Ave","city":"Alexandria","state":"VA","zip":"22315","lon":"-77.1601","lat":"38.763"},
			{"sitterid":"169","sitter":"Erik","active":"0","street1":"3900 Adrienne Dr","city":"Alexandria","state":"VA","zip":"22309","lon":"-77.099","lat":"38.7183"},
			{"sitterid":"170","sitter":"Diane","active":"0","street1":"6727 West Wakefield Dr,","city":"Alexandria","state":"VA","zip":"22307","lon":"-77.0612","lat":"38.7738"},
			{"sitterid":"171","sitter":"Peyton","active":"1","street1":"1600 Cool Spring Drive","city":"Alexandria","state":"VA","zip":"22308","lon":"-77.0596","lat":"38.7322"},
			{"sitterid":"172","sitter":"Kassandra","active":"0","street1":"1464 South Greenmount Drive","city":"Alexandria","state":"VA","zip":"22311","lon":"-77.1252","lat":"38.8283"},
			{"sitterid":"173","sitter":"Robert","active":"0","street1":"3268 Holly Berry Ct.","city":"Falls Church","state":"VA 22042-3315","zip":"22042-3315","lon":"-77.2163","lat":"38.8562"},
			{"sitterid":"174","sitter":"Kellee","active":"0","street1":"2785 Forest Run Drive","city":"Melbourne","state":"FL","zip":"32935","lon":"-80.6683","lat":"28.1802"},
			{"sitterid":"175","sitter":"Colleen","active":"0","street1":null,"city":null,"state":null,"zip":null,"0":false},
			{"sitterid":"176","sitter":"Sharon","active":"0","street1":"8043 Felecity Court","city":"Springfield","state":"VA","zip":"22153","lon":"-77.2147","lat":"38.7395"},
			{"sitterid":"177","sitter":"Barbara","active":"1","street1":"171 Sommervelle St #213","city":"Alexandria","state":"VA","zip":"22304","lon":"-77.1164","lat":"38.8093"},
			{"sitterid":"178","sitter":"Robbie","active":"0","street1":"1132 Swan St","city":"Deltona","state":"FL","zip":"32725","lon":"-81.2432","lat":"28.9156"},
			{"sitterid":"179","sitter":"DavidM","active":"0","street1":"1504 Cool Spring Drive","city":"Alexandria","state":"VA","zip":"22308","lon":"-77.0588","lat":"38.732"},
			{"sitterid":"180","sitter":"Testy","active":"1","street1":"708 Pendleton St.","city":"Alexandria","state":"VA","zip":"22314","lon":"-77.0464","lat":"38.8106"},
			{"sitterid":"181","sitter":"Haillie","active":"0","street1":"149 Marshall Newland Rd","city":"EAST BURKE","state":"VT","zip":"05832","lon":"-71.9237","lat":"44.6191"},
			{"sitterid":"182","sitter":"Dave","active":"0","street1":"2412 Fairview Drive","city":"Alexandria","state":"VA","zip":"22306","lon":"-77.0748","lat":"38.7782"},
			{"sitterid":"183","sitter":"Jess","active":"0","street1":"610 N. West Street","city":"Alexandria","state":"VA","zip":"22314","lon":"-77.0537","lat":"38.8119"},
			{"sitterid":"184","sitter":"Lara","active":"0","street1":"4206 Duvawn Street","city":"Alexandria","state":"VA","zip":"22310","lon":"-77.1048","lat":"38.7872"},
			{"sitterid":"185","sitter":"Jennifer","active":"0","street1":"305 S. Edgewood Street","city":"Arlington","state":"VA","zip":"22204","lon":"-77.0873","lat":"38.8702"},
			{"sitterid":"186","sitter":"Rebecca","active":"0","street1":"4604 Raleigh Avenue","city":"Alexandria","state":"VA","zip":"22304","lon":"-77.1114","lat":"38.8142"},
			{"sitterid":"187","sitter":"Francis","active":"0","street1":"4401 Groombridge Way","city":"Alexandria","state":"VA","zip":"22309","lon":"-77.1075","lat":"38.7327"},
			{"sitterid":"188","sitter":"Sa\u00fal","active":"0","street1":"1509 Belle View Blvd","city":"Alexandria","state":"VA","zip":"22307","lon":"-77.0591","lat":"38.7746"},
			{"sitterid":"189","sitter":"Jessica ","active":"1","street1":"1020 Queen Street","city":"Alexandria","state":"VA","zip":"22314","lon":"-77.0505","lat":"38.8077"},
			{"sitterid":"190","sitter":"Brendan","active":"0","street1":null,"city":"Washington","state":"DC","zip":"20032","lon":"-77.0369","lat":"38.9072"},
			{"sitterid":"191","sitter":"Cat","active":"0","street1":"14531 South Hills Court","city":"Centreville","state":"VA","zip":"20120","lon":"-77.4533","lat":"38.8682"},
			{"sitterid":"192","sitter":"Alek","active":"0","street1":"4922 Celtic Drive ","city":"Alexandria","state":"VA","zip":"22310","lon":"-77.1195","lat":"38.7821"},
			{"sitterid":"193","sitter":"Amanda","active":"0","street1":"7628 Hayfield Road","city":"Alexandria","state":"VA","zip":"22315","lon":"-77.1371","lat":"38.7494"},
			{"sitterid":"194","sitter":"Stephanie","active":"0","street1":"5840 Cameron Run Terrace","city":"Alexandria","state":"VA","zip":"22303","lon":"-77.0617","lat":"38.7937"},
			{"sitterid":"195","sitter":"Kelsey","active":"0","street1":"900 North Stuart St. ","city":"Arlington","state":"VA","zip":"22203","lon":"-77.1122","lat":"38.8806"},
			{"sitterid":"196","sitter":"Olivia","active":"0","street1":"205 E. Oxford Ave","city":"Alexandria","state":"VA","zip":"22301","lon":"-77.0581","lat":"38.8267"},
			{"sitterid":"197","sitter":"Jacque","active":"0","street1":"412 Hanson Lane ","city":"Alexandria","state":"VA","zip":"22302","lon":"-77.0698","lat":"38.8186"},
			{"sitterid":"198","sitter":"Nathan ","active":"0","street1":"5375 Duke St","city":"Alexandria","state":"VA","zip":"22304","lon":"-77.1246","lat":"38.8144"},
			{"sitterid":"199","sitter":"HeatherR","active":"0","street1":"3301 Valley Drive","city":"Alexandria","state":"VA","zip":"22302","lon":"-77.0798","lat":"38.8353"},
			{"sitterid":"200","sitter":"Fabio ","active":"0","street1":"620 N Fayette St ","city":"Alexandria","state":"VA","zip":"22314","lon":"-77.0516","lat":"38.8122"},
			{"sitterid":"201","sitter":"Brett","active":"0","street1":"1202 Colonial Avenue ","city":"Alexandria","state":"VA","zip":"22314","lon":"-77.0487","lat":"38.8179"},
			{"sitterid":"202","sitter":"Bob","active":"0","street1":"401 E. Del Ray Avenue","city":"Alexandria","state":"VA","zip":"22301","lon":"-77.0543","lat":"38.8263"},
			{"sitterid":"203","sitter":"August","active":"0","street1":"3904 Ivanhoe Lane ","city":"Alexandria","state":"VA","zip":"22310","lon":"-77.0991","lat":"38.7899"},
			{"sitterid":"204","sitter":"Mollie","active":"0","street1":"6110 23rd St. N","city":"Arlington","state":"VA","zip":"22205","lon":"-77.1489","lat":"38.8917"},
			{"sitterid":"205","sitter":"Frances","active":"0","street1":"413 Sherrow Avenue","city":"Falls Church","state":"VA","zip":"22046","lon":"-77.1809","lat":"38.8829"},
			{"sitterid":"206","sitter":"Laura M.","active":"0","street1":"29228 Raccoon Ford Rd","city":"Burr Hill","state":"VA","zip":"22433","lon":"-77.8658","lat":"38.3495"},
			{"sitterid":"207","sitter":"Piero","active":"0","street1":"5332 Truman Avenue","city":"Alexandria","state":"VA","zip":"22304","lon":"-77.1227","lat":"38.8188"},
			{"sitterid":"208","sitter":"Sam","active":"0","street1":"6369 Lakewood Dr.","city":"Falls Church","state":"VA","zip":"22041","lon":"-77.1568","lat":"38.8396"},
			{"sitterid":"209","sitter":"Christine W","active":"0","street1":"7469 Digby Green","city":"Alexandria","state":"VA","zip":"22315","lon":"-77.1549","lat":"38.7569"},
			{"sitterid":"210","sitter":"Caren","active":"0","street1":"1012 Pendleton Street","city":"Alexandria","state":"VA","zip":"22314","lon":"-77.0497","lat":"38.811"},
			{"sitterid":"211","sitter":"Sarah D","active":"0","street1":"40 S. Ingram St.","city":"Alexandria","state":"VA","zip":"22304","lon":"-77.1064","lat":"38.8103"},
			{"sitterid":"212","sitter":"Anna","active":"1","street1":"2719 Bryan Place","city":"Alexandria","state":"VA","zip":"22302","lon":"-77.0765","lat":"38.8149"},
			{"sitterid":"213","sitter":"Jess T","active":"0","street1":"501 Slaters Lane","city":"Alexandria","state":"VA","zip":"22314","lon":"-77.0412","lat":"38.8227"},
			{"sitterid":"214","sitter":"Mike","active":"0","street1":"1313 South Columbus St","city":"Arlington","state":"VA","zip":"22204","lon":"-77.1084","lat":"38.8512"},
			{"sitterid":"215","sitter":"Nathan V","active":"0","street1":"922 S Washington Street","city":"Alexandria","state":"VA","zip":"22314","lon":"-77.0484","lat":"38.7961"},
			{"sitterid":"216","sitter":"Bill P","active":"0","street1":"2703 Mount Vernon Ave ","city":"Alexandria","state":"VA","zip":"22301","lon":"-77.0592","lat":"38.8296"},
			{"sitterid":"217","sitter":"Stephen B","active":"0","street1":"3316 Highland Lane ","city":"Fairfax","state":"VA","zip":"22031","lon":"-77.2425","lat":"38.8572"},
			{"sitterid":"218","sitter":"Miguel","active":"0","street1":"1111 Belle Pre Way","city":"Alexandria","state":"VA","zip":"22314","lon":"-77.0504","lat":"38.8143"},
			{"sitterid":"219","sitter":"Randy","active":"0","street1":"308 Virginia","city":"Alexandria","state":"VA","zip":"22302","lon":"-77.0695","lat":"38.8269"},
			{"sitterid":"220","sitter":"Marcia Bennett","active":"0","street1":"404 E Monroe Ave","city":"Alexandria","state":"VA","zip":"22301","lon":"-77.0553","lat":"38.8211"},
			{"sitterid":"221","sitter":"Stephanie W","active":"0","street1":"2629 S. Hayes Street","city":"Arlington","state":"VA","zip":"22202","lon":"-77.0588","lat":"38.8492"},
			{"sitterid":"222","sitter":"Shawna","active":"1","street1":"116 Hume Ave","city":"Alexandria","state":"VA","zip":"22301","lon":"-77.0579","lat":"38.8312"},
			{"sitterid":"223","sitter":"Jenna","active":"0","street1":"3100 Commonwealth Ave #307","city":"Alexandria","state":"VA","zip":"22305","lon":"-77.0592","lat":"38.833"},
			{"sitterid":"224","sitter":"Leila","active":"0","street1":"7037 Quander Road","city":"Alexandria","state":"VA","zip":"22307","lon":"-77.0612","lat":"38.7646"},
			{"sitterid":"225","sitter":"Ayse","active":"1","street1":"5507 22nd Street North","city":"Arlington","state":"VA","zip":"22205","lon":"-77.1381","lat":"38.8932"},
			{"sitterid":"226","sitter":"AndrewP","active":"0","street1":"5418 Tripolis Court","city":"Burke","state":"VA","zip":"22015","lon":"-77.271","lat":"38.804"},
			{"sitterid":"227","sitter":"Colby","active":"0","street1":"1810 C Street SE","city":"Washington DC","state":"District of Columbia","zip":"20003","lon":"-76.9786","lat":"38.8856"},
			{"sitterid":"228","sitter":"Wes","active":"0","street1":"318 E. Windsor Ave","city":"Alexandria","state":"VA","zip":"22301","lon":"-77.0548","lat":"38.8252"},
			{"sitterid":"229","sitter":"Chris R","active":"0","street1":"5507 22nd Street North","city":"Arlington","state":"VA","zip":"22205","lon":"-77.1381","lat":"38.8932"},
			{"sitterid":"230","sitter":"Christine K","active":"0","street1":"1400 South Barton Street # 418","city":"Arlington","state":"VA","zip":"22204","lon":"-77.0834","lat":"38.8598"},
			{"sitterid":"231","sitter":"Daniel L","active":"0","street1":"1517 Belle View Blvd A2","city":"Alexandria","state":"VA","zip":"22307","lon":"-77.0595","lat":"38.7745"},
			{"sitterid":"232","sitter":"Lacey","active":"0","street1":"220 N. Saint Aspah St Apt. 2","city":"Alexandria","state":"VA","zip":"22314","lon":"-77.0458","lat":"38.8068"},
			{"sitterid":"233","sitter":"Ruth","active":"0","street1":"525 Bashford Lane","city":"Alexandria","state":"VA","zip":"22314","lon":"-77.043","lat":"38.8191"},
			{"sitterid":"234","sitter":"Ron","active":"1","street1":"401 13th street NE","city":"Washington","state":"DC","zip":"20002","lon":"-76.988","lat":"38.8951"},
			{"sitterid":"235","sitter":"Margie","active":"0","street1":"3218 Wisconsin Ave. NW","city":"Washington","state":"DC","zip":"20016","lon":"-77.073","lat":"38.9326"},
			{"sitterid":"236","sitter":"Alecia","active":"0","street1":"16 E. Mason Ave Apt. 24","city":"Alexandria","state":"VA","zip":"22301","lon":"-77.0619","lat":"38.8212"},
			{"sitterid":"237","sitter":"Stephanie D","active":"0","street1":"3110 Mount Vernon Apt. 1007","city":"Alexandria","state":"VA","zip":"22305","lon":"-77.0608","lat":"38.8337"},
			{"sitterid":"238","sitter":"Kylie","active":"0","street1":"2105 N Glebe Rd # 1316","city":"Arlington","state":"VA","zip":"22207","lon":"-77.1218","lat":"38.8964"},
			{"sitterid":"239","sitter":"Lisa H.","active":"0","street1":"3244 Valley Drive","city":"Alexandria","state":"VA","zip":"22302","lon":"-77.0779","lat":"38.8416"},
			{"sitterid":"240","sitter":"Mary","active":"0","street1":"813 Prince Street","city":"Alexandria","state":"VA","zip":"22314","lon":"-77.049","lat":"38.8044"},
			{"sitterid":"241","sitter":"Emma C.","active":"0","street1":"309 Holland Lane #323","city":"Alexandria","state":"VA","zip":"22314","lon":"-77.0599","lat":"38.8038"},
			{"sitterid":"242","sitter":"Farah","active":"0","street1":"4560 Strutfield Lane #1402","city":"Alexandria","state":"VA","zip":"22311","lon":"-77.1055","lat":"38.8356"},
			{"sitterid":"243","sitter":"Matt","active":"0","street1":"9109 Colt Lane","city":"Annandale","state":"VA","zip":"22003","lon":"-77.2588","lat":"38.813"},
			{"sitterid":"244","sitter":"Noah","active":"0","street1":"2703 Mt. Vernon Ave Apt 4","city":"Alexandria","state":"VA","zip":"22301","lon":"-77.0592","lat":"38.8296"},
			{"sitterid":"245","sitter":"Luisa","active":"0","street1":"1201 S Courthouse Rd","city":"Arlington","state":"VA","zip":"22204","lon":"-77.0791","lat":"38.8623"},
			{"sitterid":"246","sitter":"Ken","active":"0","street1":"6A leadbeater St. ","city":"Alexandria","state":"VA","zip":"22305","lon":"-77.0589","lat":"38.8348"},
			{"sitterid":"247","sitter":"Jen","active":"0","street1":"8524 Richmond Ave","city":"Alexandria","state":"VA","zip":"22309","lon":"-77.1039","lat":"38.7256"},
			{"sitterid":"248","sitter":"Neil","active":"0","street1":"1601 King James Place","city":"Alexandria","state":"VA","zip":"22304","lon":"-77.1024","lat":"38.824"},
			{"sitterid":"249","sitter":"Cynthia","active":"0","street1":"4701 Kenmore Ave.","city":"Alexandria","state":"VA","zip":"22304","lon":"-77.1127","lat":"38.8282"},
			{"sitterid":"250","sitter":"Laura D","active":"0","street1":"100 Luna Park Dr. Apt # 179","city":"Alexandria","state":"VA","zip":"22305","lon":"-77.0539","lat":"38.8375"},
			{"sitterid":"251","sitter":"Robbyn","active":"1","street1":"211 N West St Apt 2","city":"Alexandria","state":"VA","zip":"22314","lon":"-77.0539","lat":"38.8076"},
			{"sitterid":"252","sitter":"Justine","active":"0","street1":"311 Beverly Drive","city":"Alexandria","state":"VA","zip":"22305","lon":"-77.0687","lat":"38.8347"},
			{"sitterid":"253","sitter":"Taylor","active":"0","street1":"5731 Lawson Hill Ct.","city":"Alexandria","state":"VA","zip":"22310","lon":"-77.0846","lat":"38.7952"},
			{"sitterid":"254","sitter":"Antony","active":"0","street1":"6161 Morning Glory Rd","city":"Alexandria","state":"VA","zip":"22310","lon":"-77.1398","lat":"38.7844"},
			{"sitterid":"255","sitter":"Kate","active":"1","street1":"506 E. Custis Avenue","city":"Alexandria","state":"VA","zip":"22301","lon":"-77.052","lat":"38.8261"},
			{"sitterid":"256","sitter":"Brianna","active":"1","street1":"2105 Mt Vernon Ave","city":"Alexandria","state":"VA","zip":"22301","lon":"-77.0582","lat":"38.825"},
			{"sitterid":"257","sitter":"Shayne","active":"0","street1":"8500 Crossley Pl","city":"Alexandria","state":"VA","zip":"22308","lon":"-77.0572","lat":"38.7272"},
			{"sitterid":"258","sitter":"Branigan","active":"0","street1":"2201 Mill Road Apt 315","city":"Alexandria","state":"VA","zip":"22314","lon":"-77.0664","lat":"38.7989"},
			{"sitterid":"259","sitter":"Denisa","active":"0","street1":"1819 Duffield Lane","city":"Alexandria","state":"VA","zip":"22307","lon":"-77.0624","lat":"38.7887"},
			{"sitterid":"260","sitter":"Danny","active":"1","street1":"625 E Monroe Avenue","city":"Alexandria","state":"VA","zip":"22301","lon":"-77.0506","lat":"38.8206"},
			{"sitterid":"261","sitter":"Kable","active":"0","street1":"724 South Saint Asaph Street","city":"Alexandria","state":"VA","zip":"22314","lon":"-77.0471","lat":"38.7974"},
			{"sitterid":"262","sitter":"Beatrix D.","active":"1","street1":"5401 McGrath Blvd","city":"Rockville","state":"MD","zip":"20852","lon":"-77.1078","lat":"39.0493"},
			{"sitterid":"263","sitter":"Katie O.","active":"0","street1":"3061 Mount Vernon Avenue","city":"Alexandria","state":"VA","zip":"22305","lon":"-77.0598","lat":"38.8331"},
			{"sitterid":"264","sitter":"Meagan","active":"0","street1":"8116 North Numberland RD","city":"Springfield","state":"VA","zip":"22153","lon":"-77.2156","lat":"38.7355"},
			{"sitterid":"265","sitter":"Beatrix B.","active":"0","street1":"2217 N. Kentucky Street","city":"Arlington","state":"VA","zip":"22207","lon":"-77.1414","lat":"38.8927"},
			{"sitterid":"266","sitter":"Bella","active":"1","street1":"6706 Huntsman Blvd","city":"Springfield","state":"VA","zip":"22152","lon":"-77.2499","lat":"38.7704"},
			{"sitterid":"267","sitter":"Cisco","active":"0","street1":"8501 Engleside Street","city":"Alexandria","state":"VA","zip":"22309","lon":"-77.12","lat":"38.7261"},
			{"sitterid":"268","sitter":"Lidia","active":"0","street1":"1111 North Royal Street","city":"Alexandria","state":"VA","zip":"22314","lon":"-77.0409","lat":"38.8163"},
			{"sitterid":"269","sitter":"Anya","active":"1","street1":"3460 Martha Custis Drive","city":"Alexandria","state":"VA","zip":"22302","lon":"-77.0835","lat":"38.8374"},
			{"sitterid":"270","sitter":"Beatriz","active":"0","street1":"403 N Beauregard St","city":"Alexandria","state":"VA","zip":"22312","lon":"-77.1357","lat":"38.8211"},
			{"sitterid":"271","sitter":"Selma","active":"0","street1":"6807 Bock Road","city":"Fort Washington","state":"MD","zip":"20744","lon":"-76.9766","lat":"38.7955"},
			{"sitterid":"272","sitter":"EB","active":"0","street1":"233 Cameron Station Blvd","city":"Alexandria","state":"VA","zip":"22304","lon":"-77.1205","lat":"38.8077"},
			{"sitterid":"273","sitter":"Grace","active":"0","street1":"305 W. Myrtle St.","city":"Alexandria","state":"VA","zip":"22301","lon":"-77.0677","lat":"38.8148"},
			{"sitterid":"274","sitter":"Kyle","active":"1","street1":"6310 Brocketts Crossing","city":"Alexandria","state":"VA","zip":"22315","lon":"-77.1614","lat":"38.7529"},
			{"sitterid":"275","sitter":"Brenda","active":"0","street1":"12 Leadbeater Street","city":"Alexandria","state":"VA","zip":"22305","lon":"-77.0593","lat":"38.8349"},
			{"sitterid":"276","sitter":"Keith","active":"1","street1":"6237 Gentle Lane","city":"Alexandria","state":"VA","zip":"22310","lon":"-77.0848","lat":"38.781"},
			{"sitterid":"277","sitter":"Sally","active":"0","street1":"1421 Oronoco Street","city":"Alexandria","state":"VA","zip":"22314","lon":"-77.0542","lat":"38.8108"},
			{"sitterid":"278","sitter":"Maria","active":"1","street1":"4600 S. Four Mile Run Dr., #516","city":"Arlington","state":"VA","zip":"22204","lon":"-77.1074","lat":"38.8549"},
			{"sitterid":"279","sitter":"Gina","active":"0","street1":"6000 Coffer Woods Ct","city":"Burke","state":"VA","zip":"22015","lon":"-77.2905","lat":"38.7904"},
			{"sitterid":"280","sitter":"Andrea H.","active":"0","street1":"205 Wesmond Drive","city":"Alexandria","state":"VA","zip":"22305","lon":"-77.0544","lat":"38.8347"},
			{"sitterid":"281","sitter":"Alexei","active":"0","street1":"3811 Maryl St","city":"Alexandria","state":"VA","zip":"22309","lon":"-77.0997","lat":"38.7245"},
			{"sitterid":"282","sitter":"Miles","active":"0","street1":"1024 Croton Dr","city":"Alexandria","state":"VA","zip":"22308","lon":"-77.0494","lat":"38.7274"},
			{"sitterid":"283","sitter":"Jacqueline","active":"0","street1":"3904 Ivanhoe Lane","city":"Alexandria","state":"VA","zip":"22310","lon":"-77.0991","lat":"38.7899"},
			{"sitterid":"284","sitter":"Jesse","active":"0","street1":"432 N. St. Asaph St","city":"Alexandria","state":"VA","zip":"22314","lon":"-77.0454","lat":"38.8089"},
			{"sitterid":"285","sitter":"May","active":"0","street1":"20880 Isherwood Terrace, #300","city":"Ashburn","state":"VA","zip":"20147","lon":"-77.5069","lat":"39.0389"},
			{"sitterid":"286","sitter":"MollieW","active":"0","street1":"2101 Mill Road","city":"Alexandria","state":"VA","zip":"22314","lon":"-77.0671","lat":"38.7994"},
			{"sitterid":"287","sitter":"Fadia","active":"0","street1":"2704 Popkins Lane","city":"Alexandria","state":"VA","zip":"22306","lon":"-77.0783","lat":"38.7645"},
			{"sitterid":"288","sitter":"Jose","active":"0","street1":"2650 Fort Dr, Apt 302","city":"Alexandria","state":"VA","zip":"22303","lon":"-77.0778","lat":"38.7897"},
			{"sitterid":"289","sitter":"BeckyH","active":"1","street1":"5529-F Patrick Circle SW","city":"Washington","state":"DC","zip":"20032","lon":"-77.0171","lat":"38.8456"},
			{"sitterid":"290","sitter":"Ann","active":"1","street1":"8504 Sky View Drive","city":"Alexandria","state":"VA","zip":"22309","lon":"-77.1147","lat":"38.7267"},
			{"sitterid":"291","sitter":"Katy","active":"1","street1":"4115 Casey Ct","city":"Alexandria","state":"VA","zip":"22306","lon":"-77.1044","lat":"38.7641"},
			{"sitterid":"292","sitter":"Iris","active":"0","street1":"2825 Fairhaven Ave","city":"Alexandria","state":"VA","zip":"22303","lon":"-77.0807","lat":"38.787"},
			{"sitterid":"293","sitter":"Kate-T","active":"1","street1":"5846 Governors Hill Dr","city":"Alexandria","state":"VA","zip":"22310","lon":"-77.0863","lat":"38.7917"},
			{"sitterid":"294","sitter":"John M.","active":"1","street1":"2922 Commonwealth Ave","city":"Alexandria","state":"VA","zip":"22305","lon":"-77.0599","lat":"38.8311"},
			{"sitterid":"295","sitter":"Keghley","active":"1","street1":"1740 N Culpeper St","city":"Arlington","state":"VA","zip":"22207","lon":"-77.1228","lat":"38.8919"},
			{"sitterid":"296","sitter":"Anna F.","active":"0","street1":"5 E Oxford, Unit 1","city":"Alexandria","state":"VA","zip":"22301","lon":"-77.0609","lat":"38.8265"},
			{"sitterid":"297","sitter":"Dani","active":"0","street1":"4233 Raleigh Ave. #401","city":"Alexandria","state":"VA","zip":"22304","lon":"-77.104","lat":"38.8171"},
			{"sitterid":"298","sitter":"Kyle G.","active":"0","street1":"6520 10th St","city":"Alexandria","state":"VA","zip":"22307","lon":"-77.0546","lat":"38.7758"},
			{"sitterid":"299","sitter":"Meschelle","active":"0","street1":"6929 Randolph Macon Dr","city":"Alexandria","state":"VA","zip":"22307","lon":"-77.0678","lat":"38.767"},
			{"sitterid":"300","sitter":"Brionna","active":"0","street1":"2945 Rosemary Lane","city":"Falls Church","state":"VA","zip":"22042","lon":"-77.1901","lat":"38.8705"},
			{"sitterid":"301","sitter":"Bri","active":"1","street1":"4124 Ames St NE","city":"Washington","state":"DC","zip":"20019","lon":"-76.943","lat":"38.8911"},
			{"sitterid":"302","sitter":"Keri","active":"1","street1":"5501 Butterworth Ct","city":"Alexandria","state":"VA","zip":"22315","lon":"-77.1283","lat":"38.7608"},
			{"sitterid":"303","sitter":"GLG Cleaning","active":"0","street1":"212 E Custis Ave","city":"Alexandria","state":"VA","zip":"22301","lon":"-77.0574","lat":"38.8256"},
			{"sitterid":"304","sitter":"Terri","active":"1","street1":"7830 Liberty Springs Cir","city":"Alexandria","state":"VA","zip":"22306","lon":"-77.0815","lat":"38.7449"},
			{"sitterid":"305","sitter":"Isamar","active":"0","street1":"5403 9th St NW Apt 4","city":"Washington","state":"DC","zip":"20011","lon":"-77.0257","lat":"38.9554"},
			{"sitterid":"306","sitter":"Cheryl S.","active":"1","street1":"7112 Rock Ridge Lane","city":"Alexandria","state":"VA","zip":"22315","lon":"-77.1472","lat":"38.7641"},
			{"sitterid":"307","sitter":"Steve K.","active":"1","street1":"4202 Javins Drive","city":"Alexandria","state":"VA","zip":"22310","lon":"-77.1054","lat":"38.789"},
			{"sitterid":"308","sitter":"Sandra","active":"1","street1":"8130 Keeler St","city":"Alexandria","state":"VA","zip":"22309","lon":"-77.12","lat":"38.7376"},
			{"sitterid":"309","sitter":"Melaina","active":"1","street1":"4801 Kenmore Ave Apt 1122","city":"Alexandria","state":"VA","zip":"22304","lon":"-77.1124","lat":"38.8281"},
			{"sitterid":"310","sitter":"Chat","active":"1","street1":"7089 Spring Garden Dr Apt 102","city":"Springfield","state":"VA","zip":"22150","lon":"-77.1874","lat":"38.7731"},
			{"sitterid":"311","sitter":"Colin","active":"1","street1":"6611 Berkshire Dr","city":"Alexandria","state":"VA","zip":"22310","lon":"-77.0962","lat":"38.7741"},
			{"sitterid":"312","sitter":"Michael","active":"0","street1":"1952 3rd Street NE","city":"Washington","state":"DC","zip":"20002","lon":"-77.0024","lat":"38.9171"},
			{"sitterid":"313","sitter":"Dee-jayh","active":"1","street1":"1201 Braddock Pl Apt 309","city":"Alexandria","state":"VA","zip":"22314","lon":"-77.051","lat":"38.8152"},
			{"sitterid":"314","sitter":"Aaron","active":"1","street1":"1813 Leslie Ave","city":"Alexandria","state":"VA","zip":"22301","lon":"-77.0538","lat":"38.8232"},
			{"sitterid":"315","sitter":"Alicia","active":"0","street1":"6702 Kenmont Place","city":"Springfield","state":"VA","zip":"22152","lon":"-77.2109","lat":"38.773"},
			{"sitterid":"316","sitter":"Farrah","active":"1","street1":"3728 Edison St","city":"Alexandria","state":"VA","zip":"22305","lon":"-77.0607","lat":"38.8397"},
			{"sitterid":"317","sitter":"Andrea R.","active":"1","street1":"2500 N. Van Dorn St #1013","city":"Alexandria","state":"VA","zip":"22302","lon":"-77.0997","lat":"38.8327"},
			{"sitterid":"318","sitter":"Lara G.","active":"1","street1":"2246 Richelieu Dr","city":"Vienna","state":"VA","zip":"22182","lon":"-77.2404","lat":"38.8986"},
			{"sitterid":"319","sitter":"Andy H.","active":"1","street1":"1207 Trinity Dr","city":"Alexandria","state":"VA","zip":"22314","lon":"-77.0855","lat":"38.8133"},
			{"sitterid":"320","sitter":"Jeri","active":"0","street1":"629 S Adams St","city":"Arlington","state":"VA","zip":"22204","lon":"-77.0841","lat":"38.8677"},
			{"sitterid":"321","sitter":"Kevin","active":"1","street1":"1522 Princess St.","city":"Alexandria","state":"VA","zip":"22314","lon":"-77.0554","lat":"38.8093"},
			{"sitterid":"322","sitter":"Elena","active":"1","street1":"4651 Seminary Rd #304","city":"Alexandria","state":"VA","zip":"22304","lon":"-77.1096","lat":"38.8275"},
			{"sitterid":"323","sitter":"Eric","active":"1","street1":"8600 Botley Dr","city":"Fort Washington","state":"MD","zip":"20744","lon":"-77.0209","lat":"38.7692"},
			{"sitterid":"324","sitter":"Gianna","active":"1","street1":"6631 Wakefield Dr #217","city":"Alexandria","state":"VA","zip":"22307","lon":"-77.0569","lat":"38.7717"},
			{"sitterid":"325","sitter":"Ivania","active":"1","street1":"7927 Frye Rd","city":"Alexandria","state":"VA","zip":"22309","lon":"-77.1159","lat":"38.7408"}
]
}